OBJECT_NAME,OBJECT_ID,EPOCH,MEAN_MOTION,ECCENTRICITY,INCLINATION,RA_OF_ASC_NODE,ARG_OF_PERICENTER,MEAN_ANOMALY,EPHEMERIS_TYPE,CLASSIFICATION_TYPE,NORAD_CAT_ID,ELEMENT_SET_NO,REV_AT_EPOCH,BSTAR,MEAN_MOTION_DOT,MEAN_MOTION_DDOT
LEMUR-2-STARLIGHT,2025-276DY,2026-06-19T16:57:25.649568,14.99062515,.0015046,97.5251,241.2596,120.9064,239.3641,0,U,66783,999,3057,.36626E-3,.4398E-4,0
LEMUR-2-TARTIFLETTE,2025-276DZ,2026-06-19T16:55:10.149312,14.99087846,.0014011,97.5256,241.2651,127.4604,232.7896,0,U,66784,999,3057,.30974E-3,.3712E-4,0
LEMUR-2-VUKASIN,2025-276EA,2026-06-19T16:42:53.832096,15.00389005,.0006033,97.5297,241.5592,118.5569,241.6263,0,U,66785,999,3052,.34963E-3,.4337E-4,0
LEMUR-2-HOTSPUR-TOM,2025-276EB,2026-06-19T16:44:43.597248,14.98983750,.0015357,97.5256,241.2390,120.1487,240.1261,0,U,66786,999,3050,.37393E-3,.4483E-4,0
LEMUR-2-MYRA,2025-276EC,2026-06-19T17:28:30.847584,15.00277738,.0016884,97.5212,241.5259,133.2022,227.0615,0,U,66787,999,3059,.53748E-3,.6697E-4,0
LEMUR-2 FIKRETDENGIZ,2026-004A,2026-06-19T13:18:39.668256,14.88339314,.00102623,97.8019,169.0760,126.2869,233.9298,0,U,67363,999,2363,.34950308E-3,.3183E-4,0
TWILIGHT-1 OBJECT B,2026-004B,2026-06-19T12:18:27.429408,14.87708915,.00100887,97.8061,169.0492,117.7730,242.4511,0,U,67364,999,2363,.15512319E-3,.136E-4,0
LEMUR-2-MARIO-SOUSA,2026-004C,2026-06-19T06:27:26.449632,14.88527155,.00098518,97.7989,168.7911,127.7711,232.4400,0,U,67365,999,2360,.42223362E-3,.3875E-4,0
LEMUR-2-SONNENBLUME,2026-004E,2026-06-19T11:15:57.988224,14.88325366,.00093434,97.7984,168.9721,128.7374,231.4679,0,U,67367,999,2363,.27419711E-3,.2484E-4,0
LEMUR-2-WOBLER,2026-004F,2026-06-18T23:48:32.664672,14.88525973,.00097259,97.8038,168.6263,120.7773,239.4402,0,U,67368,999,2356,.30915882E-3,.2822E-4,0
LEMUR-2-GRAM-E-SUE,2026-004H,2026-06-18T23:35:09.492000,14.88476924,.00083174,97.7971,168.5083,130.7429,229.4511,0,U,67370,999,2356,.17338348E-3,.1556E-4,0
LEMUR-2-KATIE,2026-004AA,2026-06-19T13:44:23.693280,14.90060068,.00048333,97.8036,169.5560,88.1054,272.0717,0,U,67387,999,2366,.23688209E-3,.2233E-4,0
LEMUR-2-HCS-BAZUS,2026-004AB,2026-06-19T13:42:58.921920,14.90089564,.00043668,97.8025,169.5356,86.0649,274.1068,0,U,67388,999,2366,.38288178E-3,.3646E-4,0
